TIANMU-1 07             
1 57399U 23101A   26065.57454230  .00008352  00000+0  29795-3 0  9991
2 57399  97.2728 118.5929 0004609 142.4105 217.7458 15.29118809145964
STARLINK-30456          
1 57943U 23148J   26068.25869119 -.00000215  00000+0  48804-5 0  9996
2 57943  53.1621  26.4758 0001148 104.1180 255.9948 15.30190510138356
